OBJECT_NAME,OBJECT_ID,EPOCH,MEAN_MOTION,ECCENTRICITY,INCLINATION,RA_OF_ASC_NODE,ARG_OF_PERICENTER,MEAN_ANOMALY,EPHEMERIS_TYPE,CLASSIFICATION_TYPE,NORAD_CAT_ID,ELEMENT_SET_NO,REV_AT_EPOCH,BSTAR,MEAN_MOTION_DOT,MEAN_MOTION_DDOT
STARLINK-37938,2026-135Y,2026-07-12T20:00:01.999008,15.49174731,.0001351,97.2843,222.2223,96.5912,293.6776,0,U,69568,999,543,.27065E-3,.14649E-3,0
STARLINK-37924,2026-135Z,2026-07-12T20:00:01.999008,15.56295305,.0001803,97.2836,222.3078,105.1385,131.1295,0,U,69569,999,543,-.43979E-1,-.2716626E-1,0
SHIJIAN-31 (SJ-31),2026-136A,2026-07-12T11:10:08.780160,1.92227615,.6940169,63.4863,353.4761,171.8332,212.2962,0,U,69570,999,57,0,-.42E-5,0
CZ-3B R/B,2026-136B,2026-07-12T19:04:45.294816,2.37730711,.7258757,63.4318,350.9652,171.4972,216.4011,0,U,69571,999,62,.50319E-3,.319834E-2,-.15553E-6
GUOWANG OBJECT A,2026-137A,2026-07-12T21:25:09.001056,13.89812741,.0012495,49.9997,153.0717,311.3863,48.5960,0,U,69572,999,359,.24502E-5,-.143E-5,0
GUOWANG OBJECT B,2026-137B,2026-07-09T15:41:33.480672,13.89803849,.00118595,50.0016,165.9303,298.8434,61.1273,0,U,69573,999,315,-.55136387E-4,-.214E-5,0
GUOWANG OBJECT C,2026-137C,2026-07-12T21:19:23.984256,13.89815862,.0011888,49.9966,153.0342,311.3954,48.5921,0,U,69574,999,360,.48994E-4,-.85E-6,0
GUOWANG OBJECT D,2026-137D,2026-07-09T15:38:20.572800,13.89827781,.00110869,49.9953,165.9027,299.2996,60.6794,0,U,69575,999,315,-.17667174E-4,-.168E-5,0
GUOWANG OBJECT E,2026-137E,2026-07-12T00:33:49.286304,13.89824941,.00112248,50.0038,156.4799,310.0552,49.9361,0,U,69576,999,348,-.46562868E-4,-.204E-5,0
GUOWANG OBJECT F,2026-137F,2026-07-09T15:35:44.385792,13.89809494,.00108496,50.0025,165.9144,302.1836,57.8010,0,U,69577,999,315,-.5598398E-4,-.215E-5,0
GUOWANG OBJECT G,2026-137G,2026-07-11T07:16:00.337152,13.89795025,.0010806,49.9952,159.3085,307.5258,52.4657,0,U,69578,999,338,.35461E-5,-.142E-5,0
GUOWANG OBJECT H,2026-137H,2026-07-10T00:11:03.674688,13.89776278,.00102494,50.0012,164.4679,306.3680,53.6272,0,U,69579,999,320,-.23862216E-4,-.175E-5,0
GUOWANG OBJECT J,2026-137J,2026-06-27T06:41:01.268160,13.91997107,.0011832,49.9961,215.0979,257.3150,102.6427,0,U,69580,999,143,.13174E-3,.22E-6,0
CZ-12 R/B,2026-137K,2026-07-11T22:26:18.375360,14.11694199,.0077454,49.9887,153.2620,198.5521,161.2558,0,U,69581,999,350,.63124E-4,-.35E-6,0
CENTISPACE-1 GROUP 05 OBJECT A,2026-138A,2026-07-12T05:04:03.574272,14.15470780,.001121,55.1388,188.7707,337.8210,22.2278,0,U,69582,999,356,.31368E-4,-.92E-6,0
CENTISPACE-1 GROUP 05 OBJECT B,2026-138B,2026-07-12T11:46:08.780160,14.15650579,.00102089,55.1381,187.7094,338.8919,21.1632,0,U,69583,999,360,-.12216629E-4,-.178E-5,0
CENTISPACE-1 GROUP 05 OBJECT C,2026-138C,2026-07-12T11:43:57.515232,14.15734235,.00101315,55.1387,187.7101,340.4978,19.5607,0,U,69584,999,360,-.35131597E-4,-.223E-5,0
CENTISPACE-1 GROUP 05 OBJECT D,2026-138D,2026-07-12T11:39:26.607168,14.15919829,.00097541,55.1385,187.6851,339.8242,20.2346,0,U,69585,999,360,-.85962578E-4,-.324E-5,0
CENTISPACE-1 GROUP 05 OBJECT E,2026-138E,2026-07-12T09:56:04.826400,14.15986917,.00094488,55.1378,187.9468,340.0030,20.0573,0,U,69586,999,359,-.85302322E-4,-.323E-5,0
CENTISPACE-1 GROUP 05 OBJECT F,2026-138F,2026-07-12T09:57:48.063168,14.15910050,.00093922,55.1382,187.9546,344.2379,15.8301,0,U,69587,999,359,-.75918053E-4,-.304E-5,0
CENTISPACE-1 GROUP 05 OBJECT G,2026-138G,2026-07-12T09:53:32.912736,14.16073930,.00086294,55.1383,187.9363,344.0005,16.0696,0,U,69588,999,359,-.11166998E-3,-.375E-5,0
SPACEMOBILE-008,2026-139A,2026-07-12T20:10:22.636128,15.12800321,.000497,52.9944,146.0977,50.9222,309.2211,0,U,69589,999,386,.11217E-4,-.102E-5,0
SPACEMOBILE-009,2026-139B,2026-07-12T20:12:57.813120,15.12693616,.0005197,52.9935,146.1036,46.5780,313.5643,0,U,69590,999,386,.11515E-4,-.97E-6,0
SPACEMOBILE-010,2026-139C,2026-07-12T06:00:42.241824,15.12524273,.0005089,52.9941,148.8229,36.8911,323.2429,0,U,69591,999,378,.13955E-4,-.55E-6,0
KUIPER-00423,2026-140A,2026-07-12T10:54:29.018592,15.38571092,.00132078,51.8794,276.3300,261.6872,98.2618,0,U,69592,999,512,.40163234E-3,.15209E-3,0
KUIPER-00428,2026-140B,2026-07-12T14:53:06.079200,15.36916079,.0008046,51.8810,275.9284,21.5732,338.5592,0,U,69593,999,514,.3455E-3,.12306E-3,0
KUIPER-00481,2026-140C,2026-07-12T14:16:15.212928,15.37965662,.0010947,51.8774,275.7590,272.1562,87.8171,0,U,69594,999,514,.31694E-3,.11663E-3,0
KUIPER-00490,2026-140D,2026-07-12T14:30:10.835712,15.37923244,.0006944,51.8779,275.8189,332.5032,27.5587,0,U,69595,999,514,.45563E-3,.16912E-3,0
KUIPER-00493,2026-140E,2026-07-12T15:00:02.869344,15.36640125,.00077,51.8809,275.9590,28.7780,331.3630,0,U,69596,999,514,.35783E-3,.12643E-3,0
KUIPER-00496,2026-140F,2026-07-12T13:55:23.251872,15.34267587,.0010283,51.8793,276.3965,40.9395,319.2361,0,U,69597,999,513,.71988E-3,.23977E-3,0
